{"type": "FeatureCollection", "features": [ {"type": "Feature", "properties": {"norad_id": 39781, "name": "IRIDIUM 33 DEB", "group": "iridium-33-debris", "lat": -78.77150445208449, "lon": 91.00020372678243, "alt_km": 721.5729026054878, "timestamp": "2025-12-26T09:30:54.025078+00:00", "meta": {"OBJECT_NAME": "IRIDIUM 33 DEB", "OBJECT_ID": "1997-051AAN", "EPOCH": "2025-12-26T00:09:41.273280", "MEAN_MOTION": 14.20964815, "ECCENTRICITY": 0.0172367, "INCLINATION": 86.3698, "RA_OF_ASC_NODE": 252.511, "ARG_OF_PERICENTER": 230.4954, "MEAN_ANOMALY": 195.4493, "EPHEMERIS_TYPE": 0, "CLASSIFICATION_TYPE": "U", "NORAD_CAT_ID": 39781, "ELEMENT_SET_NO": 999, "REV_AT_EPOCH": 8295, "BSTAR": 0.0048537, "MEAN_MOTION_DOT": 0.00012243, "MEAN_MOTION_DDOT": 0}, "tle": {"line1": "1 39781U 97051AAN 25360.00672770  .00012243  00000+0  48537-2 0  9995", "line2": "2 39781  86.3698 252.5110 0172367 230.4954 195.4493 14.20964815 82958"}}, "geometry": {"type": "Point", "coordinates": [91.00020372678243, -78.77150445208449]}}, {"type": "Feature", "properties": {"norad_id": 40996, "name": "IRIDIUM 33 DEB", "group": "iridium-33-debris", "lat": -11.671674954517588, "lon": 175.7796429076692, "alt_km": 587.4129352728869, "timestamp": "2025-12-26T09:30:54.025088+00:00", "meta": {"OBJECT_NAME": "IRIDIUM 33 DEB", "OBJECT_ID": "1997-051ABJ", "EPOCH": "2025-12-25T10:52:55.970112", "MEAN_MOTION": 14.97048042, "ECCENTRICITY": 0.0010436, "INCLINATION": 86.3519, "RA_OF_ASC_NODE": 355.4655, "ARG_OF_PERICENTER": 27.9702, "MEAN_ANOMALY": 124.5027, "EPHEMERIS_TYPE": 0, "CLASSIFICATION_TYPE": "U", "NORAD_CAT_ID": 40996, "ELEMENT_SET_NO": 999, "REV_AT_EPOCH": 62678, "BSTAR": 0.0031302, "MEAN_MOTION_DOT": 0.00036257, "MEAN_MOTION_DDOT": 0}, "tle": {"line1": "1 40996U 97051ABJ 25359.45342558  .00036257  00000+0  31302-2 0  9993", "line2": "2 40996  86.3519 355.4655 0010436  27.9702 124.5027 14.97048042626785"}}, "geometry": {"type": "Point", "coordinates": [175.7796429076692, -11.671674954517588]}}, {"type": "Feature", "properties": {"norad_id": 40998, "name": "IRIDIUM 33 DEB", "group": "iridium-33-debris", "lat": -83.25646331888696, "lon": 15.466071253686616, "alt_km": 753.0509306365775, "timestamp": "2025-12-26T09:30:54.025098+00:00", "meta": {"OBJECT_NAME": "IRIDIUM 33 DEB", "OBJECT_ID": "1997-051ABL", "EPOCH": "2025-12-24T09:47:24.769248", "MEAN_MOTION": 14.45133252, "ECCENTRICITY": 0.00087498, "INCLINATION": 86.3815, "RA_OF_ASC_NODE": 48.6709, "ARG_OF_PERICENTER": 52.6459, "MEAN_ANOMALY": 324.4141, "EPHEMERIS_TYPE": 0, "CLASSIFICATION_TYPE": "U", "NORAD_CAT_ID": 40998, "ELEMENT_SET_NO": 999, "REV_AT_EPOCH": 6850, "BSTAR": 0.00046540464, "MEAN_MOTION_DOT": 1.648e-05, "MEAN_MOTION_DDOT": 0}, "tle": {"line1": "1 40998U 97051ABL 25358.40792557  .00001648  00000+0  46540-3 0  9994", "line2": "2 40998  86.3815  48.6709 0008749  52.6459 324.4141 14.45133252 68504"}}, "geometry": {"type": "Point", "coordinates": [15.466071253686616, -83.25646331888696]}}, {"type": "Feature", "properties": {"norad_id": 46435, "name": "IRIDIUM 33 DEB", "group": "iridium-33-debris", "lat": -73.29844892070066, "lon": 20.58923737272468, "alt_km": 651.4122180509139, "timestamp": "2025-12-26T09:30:54.025108+00:00", "meta": {"OBJECT_NAME": "IRIDIUM 33 DEB", "OBJECT_ID": "1997-051ABN", "EPOCH": "2025-12-23T07:26:56.673024", "MEAN_MOTION": 14.32901113, "ECCENTRICITY": 0.02063954, "INCLINATION": 86.2811, "RA_OF_ASC_NODE": 189.3996, "ARG_OF_PERICENTER": 241.8575, "MEAN_ANOMALY": 300.4526, "EPHEMERIS_TYPE": 0, "CLASSIFICATION_TYPE": "U", "NORAD_CAT_ID": 46435, "ELEMENT_SET_NO": 999, "REV_AT_EPOCH": 8067, "BSTAR": 0.0098042113, "MEAN_MOTION_DOT": 0.00034078, "MEAN_MOTION_DDOT": 0}, "tle": {"line1": "1 46435U 97051ABN 25357.31037816  .00034078  00000+0  98042-2 0  9991", "line2": "2 46435  86.2811 189.3996 0206395 241.8575 300.4526 14.32901113 80678"}}, "geometry": {"type": "Point", "coordinates": [20.58923737272468, -73.29844892070066]}}, {"type": "Feature", "properties": {"norad_id": 46734, "name": "IRIDIUM 33 DEB", "group": "iridium-33-debris", "lat": 2.1219769644187436, "lon": 176.7295247531049, "alt_km": 764.611392053619, "timestamp": "2025-12-26T09:30:54.025118+00:00", "meta": {"OBJECT_NAME": "IRIDIUM 33 DEB", "OBJECT_ID": "1997-051ABR", "EPOCH": "2025-12-23T07:42:11.180736", "MEAN_MOTION": 14.41950916, "ECCENTRICITY": 0.00375691, "INCLINATION": 86.2641, "RA_OF_ASC_NODE": 358.2178, "ARG_OF_PERICENTER": 299.6503, "MEAN_ANOMALY": 123.5651, "EPHEMERIS_TYPE": 0, "CLASSIFICATION_TYPE": "U", "NORAD_CAT_ID": 46734, "ELEMENT_SET_NO": 999, "REV_AT_EPOCH": 63163, "BSTAR": 0.0010295637, "MEAN_MOTION_DOT": 3.42e-05, "MEAN_MOTION_DDOT": 0}, "tle": {"line1": "1 46734U 97051ABR 25357.32096274  .00003420  00000+0  10296-2 0  9999", "line2": "2 46734  86.2641 358.2178 0037569 299.6503 123.5651 14.41950916631633"}}, "geometry": {"type": "Point", "coordinates": [176.7295247531049, 2.1219769644187436]}}, {"type": "Feature", "properties": {"norad_id": 46965, "name": "IRIDIUM 33 DEB", "group": "iridium-33-debris", "lat": 40.307741913934976, "lon": 151.5240761560301, "alt_km": 698.6588092384936, "timestamp": "2025-12-26T09:30:54.025129+00:00", "meta": {"OBJECT_NAME": "IRIDIUM 33 DEB", "OBJECT_ID": "1997-051ABX", "EPOCH": "2025-12-23T05:18:49.392864", "MEAN_MOTION": 14.60370511, "ECCENTRICITY": 0.00170224, "INCLINATION": 86.3362, "RA_OF_ASC_NODE": 336.0473, "ARG_OF_PERICENTER": 295.0187, "MEAN_ANOMALY": 82.9345, "EPHEMERIS_TYPE": 0, "CLASSIFICATION_TYPE": "U", "NORAD_CAT_ID": 46965, "ELEMENT_SET_NO": 999, "REV_AT_EPOCH": 62421, "BSTAR": 0.00084803208, "MEAN_MOTION_DOT": 4.13e-05, "MEAN_MOTION_DDOT": 0}, "tle": {"line1": "1 46965U 97051ABX 25357.22140501  .00004130  00000+0  84803-3 0  9992", "line2": "2 46965  86.3362 336.0473 0017022 295.0187  82.9345 14.60370511624214"}}, "geometry": {"type": "Point", "coordinates": [151.5240761560301, 40.307741913934976]}}, {"type": "Feature", "properties": {"norad_id": 46971, "name": "IRIDIUM 33 DEB", "group": "iridium-33-debris", "lat": -71.12707066423656, "lon": -44.1057293183726, "alt_km": 576.5126659188463, "timestamp": "2025-12-26T09:30:54.025140+00:00", "meta": {"OBJECT_NAME": "IRIDIUM 33 DEB", "OBJECT_ID": "1997-051ACD", "EPOCH": "2025-12-18T04:46:20.926848", "MEAN_MOTION": 14.98336604, "ECCENTRICITY": 0.00026432, "INCLINATION": 86.3383, "RA_OF_ASC_NODE": 330.5483, "ARG_OF_PERICENTER": 282.6501, "MEAN_ANOMALY": 90.914, "EPHEMERIS_TYPE": 0, "CLASSIFICATION_TYPE": "U", "NORAD_CAT_ID": 46971, "ELEMENT_SET_NO": 999, "REV_AT_EPOCH": 64312, "BSTAR": 0.0022892837, "MEAN_MOTION_DOT": 0.00027356, "MEAN_MOTION_DDOT": 0}, "tle": {"line1": "1 46971U 97051ACD 25352.19885332  .00027356  00000+0  22893-2 0  9993", "line2": "2 46971  86.3383 330.5483 0002643 282.6501  90.9140 14.98336604643128"}}, "geometry": {"type": "Point", "coordinates": [-44.1057293183726, -71.12707066423656]}}, {"type": "Feature", "properties": {"norad_id": 46972, "name": "IRIDIUM 33 DEB", "group": "iridium-33-debris", "lat": -83.25454032446989, "lon": -114.17591863299067, "alt_km": 738.5344098824498, "timestamp": "2025-12-26T09:30:54.025150+00:00", "meta": {"OBJECT_NAME": "IRIDIUM 33 DEB", "OBJECT_ID": "1997-051ACE", "EPOCH": "2025-12-24T20:41:33.679968", "MEAN_MOTION": 14.50725222, "ECCENTRICITY": 0.00114655, "INCLINATION": 86.386, "RA_OF_ASC_NODE": 34.1849, "ARG_OF_PERICENTER": 73.1922, "MEAN_ANOMALY": 103.3991, "EPHEMERIS_TYPE": 0, "CLASSIFICATION_TYPE": "U", "NORAD_CAT_ID": 46972, "ELEMENT_SET_NO": 999, "REV_AT_EPOCH": 61748, "BSTAR": 0.00047832722, "MEAN_MOTION_DOT": 1.902e-05, "MEAN_MOTION_DDOT": 0}, "tle": {"line1": "1 46972U 97051ACE 25358.86219537  .00001902  00000+0  47833-3 0  9993", "line2": "2 46972  86.3860  34.1849 0011465  73.1922 103.3991 14.50725222617483"}}, "geometry": {"type": "Point", "coordinates": [-114.17591863299067, -83.25454032446989]}}, {"type": "Feature", "properties": {"norad_id": 46974, "name": "IRIDIUM 33 DEB", "group": "iridium-33-debris", "lat": 19.762264799643297, "lon": -82.0200967148607, "alt_km": 678.2596441145597, "timestamp": "2025-12-26T09:30:54.025161+00:00", "meta": {"OBJECT_NAME": "IRIDIUM 33 DEB", "OBJECT_ID": "1997-051ACG", "EPOCH": "2025-12-26T00:28:10.096320", "MEAN_MOTION": 14.44719321, "ECCENTRICITY": 0.009528, "INCLINATION": 86.2981, "RA_OF_ASC_NODE": 99.4774, "ARG_OF_PERICENTER": 144.0195, "MEAN_ANOMALY": 216.7473, "EPHEMERIS_TYPE": 0, "CLASSIFICATION_TYPE": "U", "NORAD_CAT_ID": 46974, "ELEMENT_SET_NO": 999, "REV_AT_EPOCH": 57700, "BSTAR": 0.0033999, "MEAN_MOTION_DOT": 0.00012499, "MEAN_MOTION_DDOT": 0}, "tle": {"line1": "1 46974U 97051ACG 25360.01956130  .00012499  00000+0  33999-2 0  9992", "line2": "2 46974  86.2981  99.4774 0095280 144.0195 216.7473 14.44719321577009"}}, "geometry": {"type": "Point", "coordinates": [-82.0200967148607, 19.762264799643297]}}, {"type": "Feature", "properties": {"norad_id": 46979, "name": "IRIDIUM 33 DEB", "group": "iridium-33-debris", "lat": -59.64478394085395, "lon": -131.51074610238203, "alt_km": 595.4510881594524, "timestamp": "2025-12-26T09:30:54.025173+00:00", "meta": {"OBJECT_NAME": "IRIDIUM 33 DEB", "OBJECT_ID": "1997-051ACM", "EPOCH": "2025-12-24T20:59:38.183136", "MEAN_MOTION": 14.90364123, "ECCENTRICITY": 0.002819, "INCLINATION": 86.3328, "RA_OF_ASC_NODE": 42.91, "ARG_OF_PERICENTER": 179.7106, "MEAN_ANOMALY": 180.4142, "EPHEMERIS_TYPE": 0, "CLASSIFICATION_TYPE": "U", "NORAD_CAT_ID": 46979, "ELEMENT_SET_NO": 999, "REV_AT_EPOCH": 35609, "BSTAR": 0.0040991, "MEAN_MOTION_DOT": 0.00040379, "MEAN_MOTION_DDOT": 0}, "tle": {"line1": "1 46979U 97051ACM 25358.87474749  .00040379  00000+0  40991-2 0  9997", "line2": "2 46979  86.3328  42.9100 0028190 179.7106 180.4142 14.90364123356090"}}, "geometry": {"type": "Point", "coordinates": [-131.51074610238203, -59.64478394085395]}}]}